ONEWEB-0012             
1 44057U 19010A   25068.75976621  .00000079  00000+0  17356-3 0  9995
2 44057  87.9102 321.3789 0002099  95.8585 264.2785 13.16596553290450
ONEWEB-0010             
1 44058U 19010B   25068.78508340 -.00000038  00000+0 -13325-3 0  9997
2 44058  87.9106 321.3558 0002109  70.9362 289.1997 13.16591302290502
ONEWEB-0008             
1 44059U 19010C   25068.73442580 -.00000039  00000+0 -13550-3 0  9997
2 44059  87.9102 321.3666 0001506  79.9213 280.2088 13.16595957290618
ONEWEB-0007             
1 44060U 19010D   25068.85694480  .00000086  00000+0  19536-3 0  9990
2 44060  87.9146 351.7121 0002186  81.2520 278.8858 13.15548872290366
ONEWEB-0006             
1 44061U 19010E   25068.78484319  .00000015  00000+0  55570-5 0  9993
2 44061  87.9137 351.6849 0002109  76.1976 283.9389 13.15549687290367
ONEWEB-0011             
1 44062U 19010F   25068.83079219 -.00000017  00000+0 -78843-4 0  9990
2 44062  87.9137 351.6818 0001806  71.9065 288.2262 13.15546413290361
ONEWEB-0013             
1 45131U 20008A   25068.73773871  .00000748  00000+0  21348-2 0  9996
2 45131  87.8637 146.4787 0002614 123.4398 236.6979 13.09416634245285
ONEWEB-0017             
1 45132U 20008B   25068.66977023 -.00000086  00000+0 -28394-3 0  9990
2 45132  87.8864 128.8725 0001980  92.4899 267.6455 13.10376324247110
